[{"OBJECT_NAME":"CONNECTA IOT-3","OBJECT_ID":"2024-149H","EPOCH":"2026-03-09T18:54:25.092288","MEAN_MOTION":15.22958192,"ECCENTRICITY":0.00016542,"INCLINATION":97.3789,"RA_OF_ASC_NODE":146.5718,"ARG_OF_PERICENTER":234.1759,"MEAN_ANOMALY":125.9324,"EPHEMERIS_TYPE":0,"CLASSIFICATION_TYPE":"U","NORAD_CAT_ID":60475,"ELEMENT_SET_NO":999,"REV_AT_EPOCH":8667,"BSTAR":0.0002486185,"MEAN_MOTION_DOT":5.77e-5,"MEAN_MOTION_DDOT":0},{"OBJECT_NAME":"HOTSAT-1","OBJECT_ID":"2023-084Y","EPOCH":"2026-03-09T22:00:57.183264","MEAN_MOTION":15.22033615,"ECCENTRICITY":3.707e-5,"INCLINATION":97.6057,"RA_OF_ASC_NODE":201.9858,"ARG_OF_PERICENTER":39.1931,"MEAN_ANOMALY":320.9331,"EPHEMERIS_TYPE":0,"CLASSIFICATION_TYPE":"U","NORAD_CAT_ID":56954,"ELEMENT_SET_NO":999,"REV_AT_EPOCH":15199,"BSTAR":0.00029593923,"MEAN_MOTION_DOT":6.692e-5,"MEAN_MOTION_DDOT":0}]
